0 COSMOS 1617
1 15469U 85003A   13281.39860828 -.00000014  00000-0 -13702-3 0  3885
2 15469 082.6155 180.6882 0001531 011.1023 038.7885 12.62429324323838
0 COSMOS 1617
1 15469U 85003A   13283.45966100  .00000001  00000-0 -51603-4 0  3893
2 15469 082.6154 179.3797 0001455 008.1319 044.0440 12.62429181324093
0 COSMOS 1617
1 15469U 85003A   13285.84087098  .00000040  00000-0  16318-3 0  3905
2 15469 082.6151 177.8679 0001335 001.3857 067.3824 12.62429040324392
0 COSMOS 1617
1 15469U 85003A   13288.15819547  .00000056  00000-0  25577-3 0  3919
2 15469 082.6146 176.3966 0001235 356.7676 158.3924 12.62429045324683
0 COSMOS 1617
1 15469U 85003A   13290.43598759  .00000034  00000-0  12824-3 0  3920
2 15469 082.6141 174.9504 0001138 349.6962 072.2801 12.62429275324976
0 COSMOS 1617
1 15469U 85003A   13292.73522520  .00000015  00000-0  22914-4 0  3930
2 15469 082.6137 173.4906 0001050 341.0925 085.1173 12.62429661325266
0 COSMOS 1617
1 15469U 85003A   13294.81104303  .00000002  00000-0 -47222-4 0  3943
2 15469 082.6135 172.1725 0000961 337.5624 158.0045 12.62429757325528
